STARLINK-4193           
1 52875U 22062AX  22181.91667824 -.00755314  00000+0 -48627-2 0  9991
2 52875  53.2172 338.6029 0001409  47.3850 129.2667 15.77506785  1309
STARLINK-4200           
1 52876U 22062AY  22181.91667824 -.00755330  00000+0 -48678-2 0  9996
2 52876  53.2172 338.6043 0001356  49.9988 125.6735 15.77484415  1308
STARLINK-4214           
1 52877U 22062AZ  22181.91667824 -.00755363  00000+0 -48585-2 0  9990
2 52877  53.2172 338.6010 0001294  54.7352 122.9018 15.77528504  1305
STARLINK-4171           
1 52878U 22062BA  22181.91667824 -.00755294  00000+0 -48603-2 0  9995
2 52878  53.2172 338.6014 0001387  48.5791 128.5683 15.77517309  1302
STARLINK-4139           
1 52879U 22062BB  22181.91667824 -.00755413  00000+0 -48515-2 0  9991
2 52879  53.2172 338.5980 0001284  56.1541 122.9470 15.77562266  1302
STARLINK-4186           
1 52880U 22062BC  22181.91667824 -.00755366  00000+0 -48536-2 0  9993
2 52880  53.2172 338.5984 0001324  52.5201 126.0950 15.77550797  1300
STARLINK-4192           
1 52881U 22062BD  22181.91667824 -.00755246  00000+0 -48554-2 0  9991
2 52881  53.2172 338.6000 0001316  56.5833 121.5505 15.77538771  1301
STARLINK-4181           
1 52882U 22062BE  22181.91667824 -.00755394  00000+0 -48490-2 0  9995
2 52882  53.2172 338.5965 0001357  50.2345 129.3635 15.77572506  1309
FALCON 9 DEB            
1 52883U 22062BF  22181.82699121  .00790272  11619-4  60270-3 0  9997
2 52883  53.2173 337.6189 0047758  86.6383 274.0115 16.11702848  2124
FALCON 9 DEB            
1 52884U 22062BG  22181.82234790  .00726772  11626-4  55690-3 0  9997
2 52884  53.2119 337.5786 0043514  87.9407 272.6612 16.12087919  2126
FALCON 9 DEB            
1 52885U 22062BH  22181.81136402  .00762989  11672-4  52554-3 0  9995
2 52885  53.2152 337.4984 0040803  79.3610 281.2019 16.13794084  2128
FALCON 9 DEB            
1 52886U 22062BJ  22181.80883229  .00905586  11702-4  57395-3 0  9995
2 52886  53.2168 337.4829 0040392  79.8006 280.7584 16.14925829  2126
SARAH-1                 
1 52887U 22063A   22174.76914807  .00057931  00000+0  16917-1 0  9990
2 52887  98.3930 181.8659 0001741 114.3380 245.7128 14.43706701  1277
GLOBALSTAR FM15         
1 52888U 22064A   22182.05604673 -.00000128  00000+0  00000+0 0  9991
2 52888  51.9756 188.8846 0009262 339.2501  20.7987 13.37541508  1552
2022-065A               
1 52894U 22065A   22181.74165856 -.00006447  00000+0 -14095-2 0  9992
2 52894  98.0196 332.7057 0009229 206.5933 153.4441 14.57517823  1387
2022-065B               
1 52895U 22065B   22181.73788650 -.00000039  00000+0  12107-5 0  9990
2 52895  98.0198 332.7118 0007289 221.1332 138.9306 14.58135814  1383
KSLV-II R/B             
1 52896U 22065C   22181.98354024  .00002319  00000+0  46641-3 0  9992
2 52896  98.0696 333.0656 0004499  56.3585 303.8035 14.62508616  1411
STEP CUBE LAB-II        
1 52897U 22065D   22182.36900963  .00000416  00000+0  10000-3 0  9991
2 52897  98.0204 333.3129 0008386 224.0613 191.1304 14.58105187   293
TIANXING-1              
1 52901U 22066A   22182.22596421  .00106979  62644-5  27028-3 0  9990
2 52901  96.7432 226.7695 0011520 257.3110 143.1644 15.95492659  1453
CMS-02 (GSAT 24)        
1 52903U 22067A   22181.80882559 -.00000289  00000+0  00000+0 0  9993
2 52903   0.0989 269.3072 0027406 333.6819  55.9523  1.00746557   114
MEASAT 3D               
1 52904U 22067B   22181.85327373 -.00000260  00000+0  00000+0 0  9996
2 52904   0.0974 282.0212 0003251 304.7194  90.3850  1.00431720   146
ARIANE 5 DEB [SYLDA]    
1 52905U 22067C   22181.13242758  .00012007  00000+0  41810-2 0  9999
2 52905   6.0251  62.6324 7274872 183.9476 162.6813  2.28341081   168
ARIANE 5 R/B            
1 52906U 22067D   22181.54534955  .00002107  00000+0  54434-3 0  9995
2 52906   6.1840  60.5273 7278666 186.0642 153.6963  2.28656664   182
YAOGAN-35 D             
1 52907U 22068A   22182.21179834 -.00000038  00000+0  00000+0 0  9991
2 52907  34.9992 231.2098 0009068 348.1958  75.4980 15.24550274  1231
YAOGAN-35 E             
1 52908U 22068B   22182.27917267 -.00110509  00000+0 -44018-2 0  9994
2 52908  34.9940 230.7663 0008121   0.2294  83.6876 15.24837098  1210
YAOGAN-35 F             
1 52909U 22068C   22182.28335877  .00003897  00000+0  15780-3 0  9991
2 52909  34.9950 230.8020 0008142 332.7565 110.1741 15.24109581  1257
CZ-2D R/B               
1 52910U 22068D   22182.26665317  .00012319  00000+0  48906-3 0  9991
2 52910  34.9992 230.8885 0009398 340.2167  19.8150 15.24502574  1214
CZ-2D DEB               
1 52911U 22068E   22181.54485146  .00012900  00000+0  50807-3 0  9991
2 52911  34.9982 235.4147 0010012 344.6807  15.2265 15.24755902  1100
GAOFEN 12-3             
1 52912U 22069A   22181.25833313 -.00178350  00000+0 -23896-1 0  9994
2 52912  97.9803  68.9335 0002901  31.2392 328.0528 14.80533761   391
CZ-4C R/B               
1 52913U 22069B   22181.95452021  .00001137  00000+0  75451-4 0  9998
2 52913  97.9731  69.7202 0074056  34.9782 325.6273 15.07279590   495
CAPSTONE & PHOTON R/B   
1 52914U 22070A   22181.71492431 -.00000203  00000+0  00000+0 0  9991
2 52914  39.0900 323.0123 4988997 343.0578   3.2081  5.69743209  2441
NACHOS                  
1 52917U 22015D   22180.81905262  .00044755  00000+0  67624-3 0  9992
2 52917  51.6445 273.9971 0007735 318.2113  41.8280 15.54231545   165
SES-22                  
1 52933U 22071A   22181.75644780 -.00000089  00000+0  00000+0 0  9995
2 52933  16.5428  66.6213 7253550 179.4274 347.2753  2.28484219    17
2022-071B               
1 52934U 22071B   22181.86856968 -.00000090  00000+0  00000+0 0  9993
2 52934  16.5415  66.5192 7252949 179.5637  80.3982  2.28745152    19
2022-072A               
1 52935U 22072A   22181.84961119  .00000962  00000+0  00000+0 0  9995
2 52935   9.9223  73.1389 0081362 224.1719 205.9960 15.16183128    27
2022-072B               
1 52936U 22075B   22182.16935073  .00000711  00000+0  00000+0 0  9997
2 52936   9.9952  71.7557 0006757 341.4590  18.0340 14.99070882    86
2022-072C               
1 52937U 22072C   22181.96974423  .00001033  00000+0  24155-4 0  9994
2 52937   9.9911  73.1780 0010240 324.6146  35.3425 15.00199814    73
2022-072D               
1 52938U 22072D   22181.84943487  .00000727  00000+0  00000+0 0  9995
2 52938   9.9291  73.2249 0054225 118.0670 313.2713 14.93783136    57
2022-072E               
1 52939U 22072E   22182.10099447  .00002182  00000+0  10000-3 0  9996
2 52939   9.9583  72.2205 0036529 319.0352  37.7679 15.03080660    97
